ONEWEB-0228             
1 48780U 21045P   24025.17808452  .00000088  00000+0  20035-3 0  9995
2 48780  87.8959  73.1584 0001953  98.5954 261.5397 13.15551485130545
